{"type": "FeatureCollection", "features": [ {"type": "Feature", "properties": {"norad_id": 66777, "name": "TRANSPORTER-15DR", "group": "last-30-days", "lat": -79.646932920714, "lon": -153.3131694385159, "alt_km": 518.417969088342, "timestamp": "2025-12-26T19:22:37.605809+00:00", "meta": {"OBJECT_NAME": "TRANSPORTER-15DR", "OBJECT_ID": "2025-276DR", "EPOCH": "2025-12-26T15:03:42.886944", "MEAN_MOTION": 15.19008561, "ECCENTRICITY": 0.00034709, "INCLINATION": 97.446, "RA_OF_ASC_NODE": 72.2261, "ARG_OF_PERICENTER": 104.0843, "MEAN_ANOMALY": 256.0778, "EPHEMERIS_TYPE": 0, "CLASSIFICATION_TYPE": "U", "NORAD_CAT_ID": 66777, "ELEMENT_SET_NO": 999, "REV_AT_EPOCH": 423, "BSTAR": 0.00066987843, "MEAN_MOTION_DOT": 0.00013971, "MEAN_MOTION_DDOT": 0}, "tle": {"line1": "1 66777U 25276DR  25360.62757971  .00013971  00000+0  66988-3 0  9995", "line2": "2 66777  97.4460  72.2261 0003470 104.0843 256.0778 15.19008561  4239"}}, "geometry": {"type": "Point", "coordinates": [-153.3131694385159, -79.646932920714]}}, {"type": "Feature", "properties": {"norad_id": 66778, "name": "TRANSPORTER-15DS", "group": "last-30-days", "lat": 73.77944283503774, "lon": 45.60360241802119, "alt_km": 507.99560497247603, "timestamp": "2025-12-26T19:22:37.605818+00:00", "meta": {"OBJECT_NAME": "TRANSPORTER-15DS", "OBJECT_ID": "2025-276DS", "EPOCH": "2025-12-18T19:26:21.991200", "MEAN_MOTION": 15.16535337, "ECCENTRICITY": 0.00032319, "INCLINATION": 97.4427, "RA_OF_ASC_NODE": 64.4586, "ARG_OF_PERICENTER": 41.3734, "MEAN_ANOMALY": 318.7744, "EPHEMERIS_TYPE": 0, "CLASSIFICATION_TYPE": "U", "NORAD_CAT_ID": 66778, "ELEMENT_SET_NO": 999, "REV_AT_EPOCH": 304, "BSTAR": 0.00025483693, "MEAN_MOTION_DOT": 4.904e-05, "MEAN_MOTION_DDOT": 0}, "tle": {"line1": "1 66778U 25276DS  25352.80997675  .00004904  00000+0  25484-3 0  9996", "line2": "2 66778  97.4427  64.4586 0003231  41.3734 318.7744 15.16535337  3043"}}, "geometry": {"type": "Point", "coordinates": [45.60360241802119, 73.77944283503774]}}, {"type": "Feature", "properties": {"norad_id": 66791, "name": "STARLINK-35867", "group": "last-30-days", "lat": 17.92353876612806, "lon": -32.189178103544684, "alt_km": 441.97064835378205, "timestamp": "2025-12-26T19:22:37.605832+00:00", "meta": {"OBJECT_NAME": "STARLINK-35867", "OBJECT_ID": "2025-278A", "EPOCH": "2025-12-26T14:00:04.000032", "MEAN_MOTION": 15.40674376, "ECCENTRICITY": 0.00013971, "INCLINATION": 43.0002, "RA_OF_ASC_NODE": 169.4117, "ARG_OF_PERICENTER": 289.562, "MEAN_ANOMALY": 59.6609, "EPHEMERIS_TYPE": 0, "CLASSIFICATION_TYPE": "U", "NORAD_CAT_ID": 66791, "ELEMENT_SET_NO": 999, "REV_AT_EPOCH": 518, "BSTAR": 0.00040101499, "MEAN_MOTION_DOT": 0.0001647, "MEAN_MOTION_DDOT": 0}, "tle": {"line1": "1 66791U 25278A   25360.58337963  .00016470  00000+0  40101-3 0  9999", "line2": "2 66791  43.0002 169.4117 0001397 289.5620  59.6609 15.40674376  5183"}}, "geometry": {"type": "Point", "coordinates": [-32.189178103544684, 17.92353876612806]}}, {"type": "Feature", "properties": {"norad_id": 66792, "name": "STARLINK-35990", "group": "last-30-days", "lat": -26.645520337212254, "lon": 20.53427352397081, "alt_km": 416.776044317392, "timestamp": "2025-12-26T19:22:37.605843+00:00", "meta": {"OBJECT_NAME": "STARLINK-35990", "OBJECT_ID": "2025-278B", "EPOCH": "2025-12-26T14:00:04.000032", "MEAN_MOTION": 15.50534176, "ECCENTRICITY": 0.00015892, "INCLINATION": 42.9999, "RA_OF_ASC_NODE": 169.2662, "ARG_OF_PERICENTER": 260.2402, "MEAN_ANOMALY": 148.9823, "EPHEMERIS_TYPE": 0, "CLASSIFICATION_TYPE": "U", "NORAD_CAT_ID": 66792, "ELEMENT_SET_NO": 999, "REV_AT_EPOCH": 518, "BSTAR": 0.00063220469, "MEAN_MOTION_DOT": 0.00036862, "MEAN_MOTION_DDOT": 0}, "tle": {"line1": "1 66792U 25278B   25360.58337963  .00036862  00000+0  63220-3 0  9994", "line2": "2 66792  42.9999 169.2662 0001589 260.2402 148.9823 15.50534176  5181"}}, "geometry": {"type": "Point", "coordinates": [20.53427352397081, -26.645520337212254]}}, {"type": "Feature", "properties": {"norad_id": 66793, "name": "STARLINK-36051", "group": "last-30-days", "lat": -28.800342025194094, "lon": 24.102002137931105, "alt_km": 416.9135660307211, "timestamp": "2025-12-26T19:22:37.605858+00:00", "meta": {"OBJECT_NAME": "STARLINK-36051", "OBJECT_ID": "2025-278C", "EPOCH": "2025-12-26T14:00:04.000032", "MEAN_MOTION": 15.50520677, "ECCENTRICITY": 0.00015028, "INCLINATION": 42.9998, "RA_OF_ASC_NODE": 169.2573, "ARG_OF_PERICENTER": 260.7336, "MEAN_ANOMALY": 152.3234, "EPHEMERIS_TYPE": 0, "CLASSIFICATION_TYPE": "U", "NORAD_CAT_ID": 66793, "ELEMENT_SET_NO": 999, "REV_AT_EPOCH": 508, "BSTAR": 0.0014185212, "MEAN_MOTION_DOT": 0.00083596, "MEAN_MOTION_DDOT": 0}, "tle": {"line1": "1 66793U 25278C   25360.58337963  .00083596  00000+0  14185-2 0  9996", "line2": "2 66793  42.9998 169.2573 0001502 260.7336 152.3234 15.50520677  5083"}}, "geometry": {"type": "Point", "coordinates": [24.102002137931105, -28.800342025194094]}}, {"type": "Feature", "properties": {"norad_id": 66794, "name": "STARLINK-36062", "group": "last-30-days", "lat": -27.762131418767684, "lon": 22.345439397636103, "alt_km": 416.5051879084649, "timestamp": "2025-12-26T19:22:37.605869+00:00", "meta": {"OBJECT_NAME": "STARLINK-36062", "OBJECT_ID": "2025-278D", "EPOCH": "2025-12-26T12:14:09.237696", "MEAN_MOTION": 15.50597285, "ECCENTRICITY": 0.00019947, "INCLINATION": 42.999, "RA_OF_ASC_NODE": 169.6901, "ARG_OF_PERICENTER": 269.7082, "MEAN_ANOMALY": 90.355, "EPHEMERIS_TYPE": 0, "CLASSIFICATION_TYPE": "U", "NORAD_CAT_ID": 66794, "ELEMENT_SET_NO": 999, "REV_AT_EPOCH": 399, "BSTAR": 0.0013293694, "MEAN_MOTION_DOT": 0.00078485, "MEAN_MOTION_DDOT": 0}, "tle": {"line1": "1 66794U 25278D   25360.50982914  .00078485  00000+0  13294-2 0  9992", "line2": "2 66794  42.9990 169.6901 0001994 269.7082  90.3550 15.50597285  3996"}}, "geometry": {"type": "Point", "coordinates": [22.345439397636103, -27.762131418767684]}}, {"type": "Feature", "properties": {"norad_id": 66795, "name": "STARLINK-36047", "group": "last-30-days", "lat": -14.516749878776588, "lon": 4.138626683804155, "alt_km": 438.8634031385027, "timestamp": "2025-12-26T19:22:37.605879+00:00", "meta": {"OBJECT_NAME": "STARLINK-36047", "OBJECT_ID": "2025-278E", "EPOCH": "2025-12-26T14:00:04.000032", "MEAN_MOTION": 15.43584603, "ECCENTRICITY": 0.00018343, "INCLINATION": 43.0003, "RA_OF_ASC_NODE": 169.3018, "ARG_OF_PERICENTER": 251.2027, "MEAN_ANOMALY": 144.452, "EPHEMERIS_TYPE": 0, "CLASSIFICATION_TYPE": "U", "NORAD_CAT_ID": 66795, "ELEMENT_SET_NO": 999, "REV_AT_EPOCH": 508, "BSTAR": -0.046124122, "MEAN_MOTION_DOT": -0.01903116, "MEAN_MOTION_DDOT": 0}, "tle": {"line1": "1 66795U 25278E   25360.58337963 -.01903116  00000+0 -46124-1 0  9997", "line2": "2 66795  43.0003 169.3018 0001834 251.2027 144.4520 15.43584603  5080"}}, "geometry": {"type": "Point", "coordinates": [4.138626683804155, -14.516749878776588]}}, {"type": "Feature", "properties": {"norad_id": 66796, "name": "STARLINK-35964", "group": "last-30-days", "lat": 21.462629264827605, "lon": -170.21644720805693, "alt_km": 324.2271943848882, "timestamp": "2025-12-26T19:22:37.605889+00:00", "meta": {"OBJECT_NAME": "STARLINK-35964", "OBJECT_ID": "2025-278F", "EPOCH": "2025-12-26T11:39:39.747744", "MEAN_MOTION": 15.81140199, "ECCENTRICITY": 0.00027171, "INCLINATION": 42.9916, "RA_OF_ASC_NODE": 166.7893, "ARG_OF_PERICENTER": 253.8891, "MEAN_ANOMALY": 106.1681, "EPHEMERIS_TYPE": 0, "CLASSIFICATION_TYPE": "U", "NORAD_CAT_ID": 66796, "ELEMENT_SET_NO": 999, "REV_AT_EPOCH": 402, "BSTAR": 0.0023432006, "MEAN_MOTION_DOT": 0.00501754, "MEAN_MOTION_DDOT": 0}, "tle": {"line1": "1 66796U 25278F   25360.48587671  .00501754  00000+0  23432-2 0  9997", "line2": "2 66796  42.9916 166.7893 0002717 253.8891 106.1681 15.81140199  4028"}}, "geometry": {"type": "Point", "coordinates": [-170.21644720805693, 21.462629264827605]}}, {"type": "Feature", "properties": {"norad_id": 66797, "name": "STARLINK-36099", "group": "last-30-days", "lat": -31.847026501861066, "lon": 29.73653227237464, "alt_km": 417.03910073579664, "timestamp": "2025-12-26T19:22:37.605899+00:00", "meta": {"OBJECT_NAME": "STARLINK-36099", "OBJECT_ID": "2025-278G", "EPOCH": "2025-12-26T14:00:04.000032", "MEAN_MOTION": 15.50534013, "ECCENTRICITY": 0.00015726, "INCLINATION": 42.9999, "RA_OF_ASC_NODE": 169.2422, "ARG_OF_PERICENTER": 261.7908, "MEAN_ANOMALY": 157.0183, "EPHEMERIS_TYPE": 0, "CLASSIFICATION_TYPE": "U", "NORAD_CAT_ID": 66797, "ELEMENT_SET_NO": 999, "REV_AT_EPOCH": 524, "BSTAR": 0.0006205025, "MEAN_MOTION_DOT": 0.0003617, "MEAN_MOTION_DDOT": 0}, "tle": {"line1": "1 66797U 25278G   25360.58337963  .00036170  00000+0  62050-3 0  9991", "line2": "2 66797  42.9999 169.2422 0001572 261.7908 157.0183 15.50534013  5246"}}, "geometry": {"type": "Point", "coordinates": [29.73653227237464, -31.847026501861066]}}, {"type": "Feature", "properties": {"norad_id": 66798, "name": "STARLINK-36041", "group": "last-30-days", "lat": -32.80346645048001, "lon": 31.690135725508803, "alt_km": 417.0678423329464, "timestamp": "2025-12-26T19:22:37.605908+00:00", "meta": {"OBJECT_NAME": "STARLINK-36041", "OBJECT_ID": "2025-278H", "EPOCH": "2025-12-26T14:00:04.000032", "MEAN_MOTION": 15.50535813, "ECCENTRICITY": 0.00015824, "INCLINATION": 42.9999, "RA_OF_ASC_NODE": 169.2371, "ARG_OF_PERICENTER": 261.9969, "MEAN_ANOMALY": 158.7242, "EPHEMERIS_TYPE": 0, "CLASSIFICATION_TYPE": "U", "NORAD_CAT_ID": 66798, "ELEMENT_SET_NO": 999, "REV_AT_EPOCH": 502, "BSTAR": 0.00062238383, "MEAN_MOTION_DOT": 0.00036284, "MEAN_MOTION_DDOT": 0}, "tle": {"line1": "1 66798U 25278H   25360.58337963  .00036284  00000+0  62238-3 0  9996", "line2": "2 66798  42.9999 169.2371 0001582 261.9969 158.7242 15.50535813  5029"}}, "geometry": {"type": "Point", "coordinates": [31.690135725508803, -32.80346645048001]}}]}